ONEWEB-0545             
1 54647U 22166F   24157.89537472  .00000144  00000+0  31725-3 0  9996
2 54647  87.9296  31.5694 0001737  98.9783 261.1548 13.21825386 73577
ONEWEB-0580             
1 54648U 22166G   24157.94426129 -.00000014  00000+0 -64376-4 0  9996
2 54648  87.9303  31.5275 0001340  92.7278 267.4009 13.21825228 73625
ONEWEB-0582             
1 54649U 22166H   24157.91113043 -.00001474  00000+0 -36015-2 0  9990
2 54649  87.9292  31.5726 0001133  94.1526 265.9737 13.21831092 74062
ONEWEB-0583             
1 54650U 22166J   24158.14926264  .00000066  00000+0  12819-3 0  9996
2 54650  87.9298  31.5249 0001844  85.3339 274.8006 13.21826120 74113
ONEWEB-0584             
1 54651U 22166K   24157.94266538  .00000039  00000+0  64116-4 0  9993
2 54651  87.9306  31.5311 0001520  88.9759 271.1549 13.21824728 73595
ONEWEB-0585             
1 54652U 22166L   24157.89221372  .00000054  00000+0  98521-4 0  9999
2 54652  87.9305  31.5495 0001917  80.0340 280.1010 13.21825252 73593
ONEWEB-0586             
1 54653U 22166M   24158.20760696  .00000074  00000+0  14823-3 0  9997
2 54653  87.9300  31.5026 0001702  88.5460 271.5869 13.21823956 74100
ONEWEB-0587             
1 54654U 22166N   24158.21707662  .00000103  00000+0  21831-3 0  9993
2 54654  87.9298  31.4561 0002101  77.8319 282.3050 13.21827351 74259
